STARLINK-3392           
1 51123U 22005V   26187.94958417 -.00001612  00000+0 -83256-4 0  9991
2 51123  53.1596 113.5304 0001138  85.2554 274.8567 15.08822656246882
STARLINK-3389           
1 51124U 22005W   26187.06546502 -.00001210  00000+0 -57951-4 0  9990
2 51124  53.1584 127.5000 0001280  84.9370 275.1767 15.08820397246615
STARLINK-3387           
1 51125U 22005X   26188.16670139  .00058239  00000+0  24398-2 0  9995
2 51125  53.1590 121.9679 0002640 117.3189 111.6671 15.22999023  5781
STARLINK-3386           
1 51126U 22005Y   26188.16670139  .00023940  00000+0  78098-3 0  9994
2 51126  53.1600 120.6277 0001167  71.6012  86.8984 15.31690178  5839
STARLINK-3370           
1 51127U 22005Z   26188.16670139  .00041549  00000+0  13447-2 0  9996
2 51127  53.1588 120.5173 0001701  83.0071 152.7366 15.31663045  5880
STARLINK-3400           
1 51128U 22005AA  26187.96706186 -.00000206  00000+0  51262-5 0  9992
2 51128  53.1595 123.4461 0001087 118.7828 241.3273 15.08827108246733
STARLINK-3396           
1 51129U 22005AB  26187.99379587 -.00002331  00000+0 -12849-3 0  9995
2 51129  53.1593 123.3274 0001253  88.8805 271.2330 15.08816609246741
STARLINK-3395           
1 51130U 22005AC  26188.17682778  .00000129  00000+0  26180-4 0  9992
2 51130  53.1593 122.5059 0001375  92.9762 267.1386 15.08822868246769
STARLINK-3388           
1 51131U 22005AD  26188.00003471 -.00015991  00000+0 -50452-3 0  9995
2 51131  53.1580 121.2983 0001376 108.1549   5.0674 15.31705369  5711
STARLINK-3393           
1 51132U 22005AE  26188.17313619 -.00001447  00000+0 -72865-4 0  9996
2 51132  53.1611 122.5247 0001663  97.8604 262.2576 15.08833438246762
STARLINK-3356           
1 51133U 22005AF  26188.16670139  .00096457  00000+0  32331-2 0  9994
2 51133  53.1591 121.4515 0001483 102.4640 132.1825 15.30137180  5894
STARLINK-3363           
1 51135U 22005AH  26188.16670139  .00059599  00000+0  23776-2 0  9995
2 51135  53.1606 121.7075 0001867  71.9425  51.8161 15.24636225  5598
STARLINK-3253           
1 51136U 22005AJ  26188.16670139  .00063145  00000+0  23519-2 0  9993
2 51136  53.1587 121.5312 0001854  92.8973 115.9575 15.26895226  5686
STARLINK-3180           
1 51137U 22005AK  26188.16670139  .00070516  00000+0  24586-2 0  9999
2 51137  53.1588 121.5457 0001083  85.6995 180.0686 15.29013533  5330
STARLINK-3177           
1 51138U 22005AL  26187.22007267  .00013322  00000+0  83488-3 0  9991
2 51138  53.1710 126.7684 0001615  89.9177 270.2000 15.09651271246623
STARLINK-3172           
1 51139U 22005AM  26188.16670139  .00089411  00000+0  31034-2 0  9991
2 51139  53.1590 121.5856 0001338 123.5541 161.6412 15.29041761  5785
STARLINK-3175           
1 51140U 22005AN  26188.09074850  .00082265  00000+0  27984-2 0  9992
2 51140  53.1594 120.8604 0001891 142.1795 217.9339 15.29740231246795
STARLINK-3179           
1 51141U 22005AP  26188.16670139  .00091985  00000+0  32351-2 0  9996
2 51141  53.1602 121.5451 0000786  82.3917 264.1056 15.28597578  5333
STARLINK-3369           
1 51142U 22005AQ  26188.13057640  .00019084  00000+0  74191-3 0  9999
2 51142  53.2204  94.1273 0002667 193.7942 166.2986 15.26084941247172
STARLINK-3184           
1 51143U 22005AR  26187.22816119 -.00001953  00000+0 -46714-4 0  9992
2 51143  53.1597 134.3806 0001696  78.4215 281.6978 15.34373127246526
STARLINK-3185           
1 51144U 22005AS  26187.29011784  .00013361  00000+0  47438-3 0  9992
2 51144  53.1611 124.5559 0003073  53.6707 306.4577 15.29363281246673
STARLINK-3354           
1 51146U 22005AU  26188.16670139  .00089531  00000+0  29890-2 0  9999
2 51146  53.1595 121.4138 0000645 105.7222 247.6749 15.30306086  5894
STARLINK-3352           
1 51147U 22005AV  26187.94116846  .00032606  00000+0  10145-2 0  9999
2 51147  53.1878 104.2142 0002401  47.5913 312.5292 15.33041018247016
STARLINK-3359           
1 51148U 22005AW  26187.17684208  .00017728  00000+0  97126-3 0  9990
2 51148  53.2129 135.0689 0002447  79.5626 280.5644 15.14294352246510
STARLINK-3360           
1 51149U 22005AX  26187.23860204 -.00002402  00000+0 -60042-4 0  9993
2 51149  53.1603 133.8633 0000981 101.8611 258.2502 15.34368934246533
STARLINK-3357           
1 51150U 22005AY  26188.16670139  .00057067  00000+0  25979-2 0  9997
2 51150  53.1604 121.6632 0000736  41.5783 266.0196 15.20173046  5844
STARLINK-3364           
1 51152U 22005BA  26188.16670139  .00085383  00000+0  30751-2 0  9995
2 51152  53.1607 131.3758 0001877 105.3484 136.0445 15.27856363  5839
LUDI TANCE 1-01A (L-SA*)
1 51284U 22007A   26188.21476356  .00000491  00000+0  58784-4 0  9999
2 51284  97.8102 195.3500 0001625  90.6347 269.5056 14.88412825241457
ASCENT                  
1 51287U 21118E   26186.10434103 -.00000259  00000+0  00000+0 0  9990
2 51287   4.2144  77.0142 0006131 106.4674 253.4450  1.01223373 16507
CSG-2                   
1 51444U 22008A   26188.20321056  .00000563  00000+0  77280-4 0  9995
2 51444  97.8894  11.5104 0001552  86.0387 274.1004 14.82159167239558
