OBJECT_NAME,OBJECT_ID,EPOCH,MEAN_MOTION,ECCENTRICITY,INCLINATION,RA_OF_ASC_NODE,ARG_OF_PERICENTER,MEAN_ANOMALY,EPHEMERIS_TYPE,CLASSIFICATION_TYPE,NORAD_CAT_ID,ELEMENT_SET_NO,REV_AT_EPOCH,BSTAR,MEAN_MOTION_DOT,MEAN_MOTION_DDOT
STARLINK-3392,2022-005V,2026-07-06T22:47:24.072288,15.08822656,.0001138,53.1596,113.5304,85.2554,274.8567,0,U,51123,999,24688,-.83256E-4,-.1612E-4,0
STARLINK-3389,2022-005W,2026-07-06T01:34:16.177728,15.08820397,.00012801,53.1584,127.5000,84.9370,275.1767,0,U,51124,999,24661,-.57950773E-4,-.121E-4,0
STARLINK-3387,2022-005X,2026-07-07T04:00:03.000096,15.22999023,.000264,53.1590,121.9679,117.3189,111.6671,0,U,51125,999,578,.24398E-2,.58239E-3,0
STARLINK-3386,2022-005Y,2026-07-07T04:00:03.000096,15.31690178,.0001167,53.1600,120.6277,71.6012,86.8984,0,U,51126,999,583,.78098E-3,.2394E-3,0
STARLINK-3370,2022-005Z,2026-07-07T04:00:03.000096,15.31663045,.0001701,53.1588,120.5173,83.0071,152.7366,0,U,51127,999,588,.13447E-2,.41549E-3,0
STARLINK-3400,2022-005AA,2026-07-06T23:12:34.144704,15.08827108,.0001087,53.1595,123.4461,118.7828,241.3273,0,U,51128,999,24673,.51262E-5,-.206E-5,0
STARLINK-3396,2022-005AB,2026-07-06T23:51:03.963168,15.08816609,.0001253,53.1593,123.3274,88.8805,271.2330,0,U,51129,999,24674,-.12849E-3,-.2331E-4,0
STARLINK-3395,2022-005AC,2026-07-07T04:14:37.920192,15.08822868,.0001375,53.1593,122.5059,92.9762,267.1386,0,U,51130,999,24676,.2618E-4,.129E-5,0
STARLINK-3388,2022-005AD,2026-07-07T00:00:02.998944,15.31705369,.0001376,53.1580,121.2983,108.1549,5.0674,0,U,51131,999,571,-.50452E-3,-.15991E-3,0
STARLINK-3393,2022-005AE,2026-07-07T04:09:18.966816,15.08833438,.0001663,53.1611,122.5247,97.8604,262.2576,0,U,51132,999,24676,-.72865E-4,-.1447E-4,0
STARLINK-3356,2022-005AF,2026-07-07T04:00:03.000096,15.30137180,.0001483,53.1591,121.4515,102.4640,132.1825,0,U,51133,999,589,.32331E-2,.96457E-3,0
STARLINK-3363,2022-005AH,2026-07-07T04:00:03.000096,15.24636225,.0001867,53.1606,121.7075,71.9425,51.8161,0,U,51135,999,559,.23776E-2,.59599E-3,0
STARLINK-3253,2022-005AJ,2026-07-07T04:00:03.000096,15.26895226,.0001854,53.1587,121.5312,92.8973,115.9575,0,U,51136,999,568,.23519E-2,.63145E-3,0
STARLINK-3180,2022-005AK,2026-07-07T04:00:03.000096,15.29013533,.0001083,53.1588,121.5457,85.6995,180.0686,0,U,51137,999,533,.24586E-2,.70516E-3,0
STARLINK-3177,2022-005AL,2026-07-06T05:16:54.278688,15.09651271,.00016155,53.1710,126.7684,89.9177,270.2000,0,U,51138,999,24662,.83488242E-3,.13322E-3,0
STARLINK-3172,2022-005AM,2026-07-07T04:00:03.000096,15.29041761,.0001338,53.1590,121.5856,123.5541,161.6412,0,U,51139,999,578,.31034E-2,.89411E-3,0
STARLINK-3175,2022-005AN,2026-07-07T02:10:40.670400,15.29740231,.0001891,53.1594,120.8604,142.1795,217.9339,0,U,51140,999,24679,.27984E-2,.82265E-3,0
STARLINK-3179,2022-005AP,2026-07-07T04:00:03.000096,15.28597578,.0000786,53.1602,121.5451,82.3917,264.1056,0,U,51141,999,533,.32351E-2,.91985E-3,0
STARLINK-3369,2022-005AQ,2026-07-07T03:08:01.800960,15.26084941,.0002667,53.2204,94.1273,193.7942,166.2986,0,U,51142,999,24717,.74191E-3,.19084E-3,0
STARLINK-3184,2022-005AR,2026-07-06T05:28:33.126816,15.34373127,.00016962,53.1597,134.3806,78.4215,281.6978,0,U,51143,999,24652,-.46714086E-4,-.1953E-4,0
STARLINK-3185,2022-005AS,2026-07-06T06:57:46.181376,15.29363281,.00030732,53.1611,124.5559,53.6707,306.4577,0,U,51144,999,24667,.47438455E-3,.13361E-3,0
STARLINK-3354,2022-005AU,2026-07-07T04:00:03.000096,15.30306086,.0000645,53.1595,121.4138,105.7222,247.6749,0,U,51146,999,589,.2989E-2,.89531E-3,0
STARLINK-3352,2022-005AV,2026-07-06T22:35:16.954944,15.33041018,.0002401,53.1878,104.2142,47.5913,312.5292,0,U,51147,999,24701,.10145E-2,.32606E-3,0
STARLINK-3359,2022-005AW,2026-07-06T04:14:39.155712,15.14294352,.00024471,53.2129,135.0689,79.5626,280.5644,0,U,51148,999,24651,.97126425E-3,.17728E-3,0
STARLINK-3360,2022-005AX,2026-07-06T05:43:35.216256,15.34368934,.00009816,53.1603,133.8633,101.8611,258.2502,0,U,51149,999,24653,-.60041592E-4,-.2402E-4,0
STARLINK-3357,2022-005AY,2026-07-07T04:00:03.000096,15.20173046,.0000736,53.1604,121.6632,41.5783,266.0196,0,U,51150,999,584,.25979E-2,.57067E-3,0
STARLINK-3364,2022-005BA,2026-07-07T04:00:03.000096,15.27856363,.0001877,53.1607,131.3758,105.3484,136.0445,0,U,51152,999,583,.30751E-2,.85383E-3,0
LUDI TANCE 1-01A (L-SAR 01A),2022-007A,2026-07-07T05:09:15.571584,14.88412825,.0001625,97.8102,195.3500,90.6347,269.5056,0,U,51284,999,24145,.58784E-4,.491E-5,0
ASCENT,2021-118E,2026-07-05T02:30:15.064992,1.01223373,.00061313,4.2144,77.0142,106.4674,253.4450,0,U,51287,999,1650,0,-.259E-5,0
CSG-2,2022-008A,2026-07-07T04:52:37.392384,14.82159167,.0001552,97.8894,11.5104,86.0387,274.1004,0,U,51444,999,23955,.7728E-4,.563E-5,0
